STARLINK-6316           
1 57335U 23099H   25231.11358343  .00000017  00000+0  16368-4 0  9992
2 57335  43.0029 269.7411 0001553 270.4710  89.5954 15.02535224116386
STARLINK-6320           
1 57336U 23099J   25231.41600095  .00000217  00000+0  31108-4 0  9991
2 57336  43.0025 267.6920 0001418 280.1223  79.9459 15.02537073116435
STARLINK-6322           
1 57337U 23099K   25231.12135760  .00000691  00000+0  66209-4 0  9998
2 57337  43.0034 269.7935 0001285 266.7199  93.3496 15.02533024116386
STARLINK-6374           
1 57338U 23099L   25230.51861380 -.00000264  00000+0 -44674-5 0  9996
2 57338  43.0027 273.0127 0001408 268.7599  91.3082 15.02534031115559
STARLINK-6332           
1 57339U 23099M   25231.45596127 -.00002234  00000+0 -15041-3 0  9998
2 57339  43.0023 268.0015 0001058 257.4290 102.6434 15.02531667116437
STARLINK-6321           
1 57340U 23099N   25231.17117987  .00000753  00000+0  70807-4 0  9996
2 57340  43.0028 269.3079 0001303 273.4617  86.6076 15.02535320116390
STARLINK-6377           
1 57341U 23099P   25231.17673055 -.00000291  00000+0 -64600-5 0  9994
2 57341  43.0028 269.3502 0001345 277.0950  82.9739 15.02536296116352
STARLINK-6375           
1 57342U 23099Q   25230.82215739  .00001721  00000+0  14244-3 0  9991
2 57342  43.0043 270.9888 0001497 274.3770  85.6901 15.02532241115607
STARLINK-6379           
1 57343U 23099R   25230.84101221 -.00000174  00000+0  21931-5 0  9999
2 57343  43.0032 271.1282 0001473 268.2699  91.7975 15.02535492115603
STARLINK-6380           
1 57344U 23099S   25231.43043247 -.00000144  00000+0  44356-5 0  9992
2 57344  43.0029 267.8100 0001172 274.2368  85.8340 15.02537610116433
STARLINK-6373           
1 57345U 23099T   25231.43376805  .00000720  00000+0  68366-4 0  9997
2 57345  43.0034 267.8357 0001322 263.1761  96.8931 15.02522501116436
STARLINK-6359           
1 57346U 23099U   25230.81548598 -.00000407  00000+0 -15071-4 0  9998
2 57346  43.0027 270.9339 0001099 271.2718  88.7999 15.02539967115603
STARLINK-6378           
1 57347U 23099V   25230.82769955  .00000237  00000+0  32595-4 0  9991
2 57347  43.0039 271.0287 0001264 276.3637  83.7062 15.02532095115602
STARLINK-6372           
1 57348U 23099W   25230.80993392  .00000159  00000+0  26858-4 0  9992
2 57348  43.0034 270.8950 0001256 272.3453  87.7245 15.02535630115600
STARLINK-6376           
1 57349U 23099X   25230.81215445  .00000168  00000+0  27477-4 0  9998
2 57349  43.0030 270.9142 0001320 273.3555  86.7136 15.02534938116325
STARLINK-6362           
1 57350U 23099Y   25230.48569560 -.00000830  00000+0 -46341-4 0  9992
2 57350  43.0036 260.5970 0001642 265.3594  94.7061 15.02532893115691
STARLINK-6331           
1 57351U 23099Z   25230.80882423 -.00000351  00000+0 -10929-4 0  9996
2 57351  43.0031 270.8862 0001177 289.6608  70.4107 15.02538590115602
