[{"OBJECT_NAME":"STARLINK-6316","OBJECT_ID":"2023-099H","EPOCH":"2025-08-19T02:43:33.608352","MEAN_MOTION":15.02535224,"ECCENTRICITY":0.0001553,"INCLINATION":43.0029,"RA_OF_ASC_NODE":269.7411,"ARG_OF_PERICENTER":270.471,"MEAN_ANOMALY":89.5954,"EPHEMERIS_TYPE":0,"CLASSIFICATION_TYPE":"U","NORAD_CAT_ID":57335,"ELEMENT_SET_NO":999,"REV_AT_EPOCH":11638,"BSTAR":1.6368e-5,"MEAN_MOTION_DOT":1.7e-7,"MEAN_MOTION_DDOT":0},{"OBJECT_NAME":"STARLINK-6320","OBJECT_ID":"2023-099J","EPOCH":"2025-08-19T09:59:02.482080","MEAN_MOTION":15.02537073,"ECCENTRICITY":0.0001418,"INCLINATION":43.0025,"RA_OF_ASC_NODE":267.692,"ARG_OF_PERICENTER":280.1223,"MEAN_ANOMALY":79.9459,"EPHEMERIS_TYPE":0,"CLASSIFICATION_TYPE":"U","NORAD_CAT_ID":57336,"ELEMENT_SET_NO":999,"REV_AT_EPOCH":11643,"BSTAR":3.1108e-5,"MEAN_MOTION_DOT":2.17e-6,"MEAN_MOTION_DDOT":0},{"OBJECT_NAME":"STARLINK-6322","OBJECT_ID":"2023-099K","EPOCH":"2025-08-19T02:54:45.296640","MEAN_MOTION":15.02533024,"ECCENTRICITY":0.0001285,"INCLINATION":43.0034,"RA_OF_ASC_NODE":269.7935,"ARG_OF_PERICENTER":266.7199,"MEAN_ANOMALY":93.3496,"EPHEMERIS_TYPE":0,"CLASSIFICATION_TYPE":"U","NORAD_CAT_ID":57337,"ELEMENT_SET_NO":999,"REV_AT_EPOCH":11638,"BSTAR":6.6209e-5,"MEAN_MOTION_DOT":6.91e-6,"MEAN_MOTION_DDOT":0},{"OBJECT_NAME":"STARLINK-6374","OBJECT_ID":"2023-099L","EPOCH":"2025-08-18T12:26:48.232320","MEAN_MOTION":15.02534031,"ECCENTRICITY":0.0001408,"INCLINATION":43.0027,"RA_OF_ASC_NODE":273.0127,"ARG_OF_PERICENTER":268.7599,"MEAN_ANOMALY":91.3082,"EPHEMERIS_TYPE":0,"CLASSIFICATION_TYPE":"U","NORAD_CAT_ID":57338,"ELEMENT_SET_NO":999,"REV_AT_EPOCH":11555,"BSTAR":-4.4674e-6,"MEAN_MOTION_DOT":-2.64e-6,"MEAN_MOTION_DDOT":0},{"OBJECT_NAME":"STARLINK-6332","OBJECT_ID":"2023-099M","EPOCH":"2025-08-19T10:56:35.053728","MEAN_MOTION":15.02531667,"ECCENTRICITY":0.0001058,"INCLINATION":43.0023,"RA_OF_ASC_NODE":268.0015,"ARG_OF_PERICENTER":257.429,"MEAN_ANOMALY":102.6434,"EPHEMERIS_TYPE":0,"CLASSIFICATION_TYPE":"U","NORAD_CAT_ID":57339,"ELEMENT_SET_NO":999,"REV_AT_EPOCH":11643,"BSTAR":-0.00015041,"MEAN_MOTION_DOT":-2.234e-5,"MEAN_MOTION_DDOT":0},{"OBJECT_NAME":"STARLINK-6321","OBJECT_ID":"2023-099N","EPOCH":"2025-08-19T04:06:29.940768","MEAN_MOTION":15.0253532,"ECCENTRICITY":0.0001303,"INCLINATION":43.0028,"RA_OF_ASC_NODE":269.3079,"ARG_OF_PERICENTER":273.4617,"MEAN_ANOMALY":86.6076,"EPHEMERIS_TYPE":0,"CLASSIFICATION_TYPE":"U","NORAD_CAT_ID":57340,"ELEMENT_SET_NO":999,"REV_AT_EPOCH":11639,"BSTAR":7.0807e-5,"MEAN_MOTION_DOT":7.53e-6,"MEAN_MOTION_DDOT":0},{"OBJECT_NAME":"STARLINK-6377","OBJECT_ID":"2023-099P","EPOCH":"2025-08-19T04:14:29.519520","MEAN_MOTION":15.02536296,"ECCENTRICITY":0.0001345,"INCLINATION":43.0028,"RA_OF_ASC_NODE":269.3502,"ARG_OF_PERICENTER":277.095,"MEAN_ANOMALY":82.9739,"EPHEMERIS_TYPE":0,"CLASSIFICATION_TYPE":"U","NORAD_CAT_ID":57341,"ELEMENT_SET_NO":999,"REV_AT_EPOCH":11635,"BSTAR":-6.46e-6,"MEAN_MOTION_DOT":-2.91e-6,"MEAN_MOTION_DDOT":0},{"OBJECT_NAME":"STARLINK-6375","OBJECT_ID":"2023-099Q","EPOCH":"2025-08-18T19:43:54.398496","MEAN_MOTION":15.02532241,"ECCENTRICITY":0.0001497,"INCLINATION":43.0043,"RA_OF_ASC_NODE":270.9888,"ARG_OF_PERICENTER":274.377,"MEAN_ANOMALY":85.6901,"EPHEMERIS_TYPE":0,"CLASSIFICATION_TYPE":"U","NORAD_CAT_ID":57342,"ELEMENT_SET_NO":999,"REV_AT_EPOCH":11560,"BSTAR":0.00014244,"MEAN_MOTION_DOT":1.721e-5,"MEAN_MOTION_DDOT":0},{"OBJECT_NAME":"STARLINK-6379","OBJECT_ID":"2023-099R","EPOCH":"2025-08-18T20:11:03.454944","MEAN_MOTION":15.02535492,"ECCENTRICITY":0.0001473,"INCLINATION":43.0032,"RA_OF_ASC_NODE":271.1282,"ARG_OF_PERICENTER":268.2699,"MEAN_ANOMALY":91.7975,"EPHEMERIS_TYPE":0,"CLASSIFICATION_TYPE":"U","NORAD_CAT_ID":57343,"ELEMENT_SET_NO":999,"REV_AT_EPOCH":11560,"BSTAR":2.1931e-6,"MEAN_MOTION_DOT":-1.74e-6,"MEAN_MOTION_DDOT":0},{"OBJECT_NAME":"STARLINK-6380","OBJECT_ID":"2023-099S","EPOCH":"2025-08-19T10:19:49.365408","MEAN_MOTION":15.0253761,"ECCENTRICITY":0.0001172,"INCLINATION":43.0029,"RA_OF_ASC_NODE":267.81,"ARG_OF_PERICENTER":274.2368,"MEAN_ANOMALY":85.834,"EPHEMERIS_TYPE":0,"CLASSIFICATION_TYPE":"U","NORAD_CAT_ID":57344,"ELEMENT_SET_NO":999,"REV_AT_EPOCH":11643,"BSTAR":4.4356e-6,"MEAN_MOTION_DOT":-1.44e-6,"MEAN_MOTION_DDOT":0},{"OBJECT_NAME":"STARLINK-6373","OBJECT_ID":"2023-099T","EPOCH":"2025-08-19T10:24:37.559520","MEAN_MOTION":15.02522501,"ECCENTRICITY":0.0001322,"INCLINATION":43.0034,"RA_OF_ASC_NODE":267.8357,"ARG_OF_PERICENTER":263.1761,"MEAN_ANOMALY":96.8931,"EPHEMERIS_TYPE":0,"CLASSIFICATION_TYPE":"U","NORAD_CAT_ID":57345,"ELEMENT_SET_NO":999,"REV_AT_EPOCH":11643,"BSTAR":6.8366e-5,"MEAN_MOTION_DOT":7.2e-6,"MEAN_MOTION_DDOT":0},{"OBJECT_NAME":"STARLINK-6359","OBJECT_ID":"2023-099U","EPOCH":"2025-08-18T19:34:17.988672","MEAN_MOTION":15.02539967,"ECCENTRICITY":0.0001099,"INCLINATION":43.0027,"RA_OF_ASC_NODE":270.9339,"ARG_OF_PERICENTER":271.2718,"MEAN_ANOMALY":88.7999,"EPHEMERIS_TYPE":0,"CLASSIFICATION_TYPE":"U","NORAD_CAT_ID":57346,"ELEMENT_SET_NO":999,"REV_AT_EPOCH":11560,"BSTAR":-1.5071e-5,"MEAN_MOTION_DOT":-4.07e-6,"MEAN_MOTION_DDOT":0},{"OBJECT_NAME":"STARLINK-6378","OBJECT_ID":"2023-099V","EPOCH":"2025-08-18T19:51:53.241120","MEAN_MOTION":15.02532095,"ECCENTRICITY":0.0001264,"INCLINATION":43.0039,"RA_OF_ASC_NODE":271.0287,"ARG_OF_PERICENTER":276.3637,"MEAN_ANOMALY":83.7062,"EPHEMERIS_TYPE":0,"CLASSIFICATION_TYPE":"U","NORAD_CAT_ID":57347,"ELEMENT_SET_NO":999,"REV_AT_EPOCH":11560,"BSTAR":3.2595e-5,"MEAN_MOTION_DOT":2.37e-6,"MEAN_MOTION_DDOT":0},{"OBJECT_NAME":"STARLINK-6372","OBJECT_ID":"2023-099W","EPOCH":"2025-08-18T19:26:18.290688","MEAN_MOTION":15.0253563,"ECCENTRICITY":0.0001256,"INCLINATION":43.0034,"RA_OF_ASC_NODE":270.895,"ARG_OF_PERICENTER":272.3453,"MEAN_ANOMALY":87.7245,"EPHEMERIS_TYPE":0,"CLASSIFICATION_TYPE":"U","NORAD_CAT_ID":57348,"ELEMENT_SET_NO":999,"REV_AT_EPOCH":11560,"BSTAR":2.6858e-5,"MEAN_MOTION_DOT":1.59e-6,"MEAN_MOTION_DDOT":0},{"OBJECT_NAME":"STARLINK-6376","OBJECT_ID":"2023-099X","EPOCH":"2025-08-18T19:29:30.144480","MEAN_MOTION":15.02534938,"ECCENTRICITY":0.000132,"INCLINATION":43.003,"RA_OF_ASC_NODE":270.9142,"ARG_OF_PERICENTER":273.3555,"MEAN_ANOMALY":86.7136,"EPHEMERIS_TYPE":0,"CLASSIFICATION_TYPE":"U","NORAD_CAT_ID":57349,"ELEMENT_SET_NO":999,"REV_AT_EPOCH":11632,"BSTAR":2.7477e-5,"MEAN_MOTION_DOT":1.68e-6,"MEAN_MOTION_DDOT":0},{"OBJECT_NAME":"STARLINK-6362","OBJECT_ID":"2023-099Y","EPOCH":"2025-08-18T11:39:24.099840","MEAN_MOTION":15.02532893,"ECCENTRICITY":0.0001642,"INCLINATION":43.0036,"RA_OF_ASC_NODE":260.597,"ARG_OF_PERICENTER":265.3594,"MEAN_ANOMALY":94.7061,"EPHEMERIS_TYPE":0,"CLASSIFICATION_TYPE":"U","NORAD_CAT_ID":57350,"ELEMENT_SET_NO":999,"REV_AT_EPOCH":11569,"BSTAR":-4.6341e-5,"MEAN_MOTION_DOT":-8.3e-6,"MEAN_MOTION_DDOT":0},{"OBJECT_NAME":"STARLINK-6331","OBJECT_ID":"2023-099Z","EPOCH":"2025-08-18T19:24:42.413472","MEAN_MOTION":15.0253859,"ECCENTRICITY":0.0001177,"INCLINATION":43.0031,"RA_OF_ASC_NODE":270.8862,"ARG_OF_PERICENTER":289.6608,"MEAN_ANOMALY":70.4107,"EPHEMERIS_TYPE":0,"CLASSIFICATION_TYPE":"U","NORAD_CAT_ID":57351,"ELEMENT_SET_NO":999,"REV_AT_EPOCH":11560,"BSTAR":-1.0929e-5,"MEAN_MOTION_DOT":-3.51e-6,"MEAN_MOTION_DDOT":0}]
